IRIDIUM 150             
1 43257U 18030J   24102.88003519  .00000152  00000+0  47074-4 0  9999
2 43257  86.3926 263.2280 0002207  85.0453 275.0995 14.34219594316049
IRIDIUM 143             
1 43258U 18030K   24102.51216706  .00000095  00000+0  26819-4 0  9994
2 43258  86.3928 263.4432 0001971  82.0075 278.1345 14.34218475315901
IRIDIUM 161             
1 43478U 18047C   24102.41899394  .00000504  00000+0  14397-3 0  9997
2 43478  86.4481  61.4470 0002310  88.3432 271.8033 14.43278492310210
IRIDIUM 152             
1 43479U 18047D   24102.41511787  .00000127  00000+0  38212-4 0  9999
2 43479  86.3956  61.3083 0002240  83.8439 276.3012 14.34217554308288
IRIDIUM 147             
1 43480U 18047E   24102.42145931 -.00000026  00000+0 -16414-4 0  9996
2 43480  86.3951  61.2969 0002251  91.1995 268.9459 14.34215926308281
IRIDIUM 110             
1 43481U 18047F   24102.42780535  .00000082  00000+0  22293-4 0  9994
2 43481  86.3960  61.3652 0002654  90.2589 269.8911 14.34217154308275
IRIDIUM 162             
1 43482U 18047G   24102.34337678  .00000489  00000+0  13929-3 0  9998
2 43482  86.4480  61.3796 0002424  92.2533 267.8945 14.43278789310199
IRIDIUM 160             
1 43569U 18061A   24102.51317560  .00000276  00000+0  91501-4 0  9994
2 43569  86.4015  29.7023 0002027  95.7584 264.3843 14.34220941299184
